{
  "norad_id": 51875,
  "name": "STARLINK-3585",
  "history": [
    {
      "epoch": "2026-03-28T20:44:52.991808Z",
      "apogee_km": 540.9625531389866,
      "perigee_km": 538.5274586729083,
      "latitude_deg": 3.4959211419140207e-06,
      "longitude_deg": 145.45647521645884,
      "height_km": 541.053501414652,
      "semi_major_axis_km": 6917.882005905947,
      "eccentricity": 0.000176,
      "inclination_deg": 53.2177,
      "raan_deg": 282.9561,
      "arg_perigee_deg": 109.8376,
      "mean_anomaly_deg": 250.2806,
      "mean_motion_rev_day": 15.08839471
    }
  ]
}