{"fetched_at":"2026-03-29T16:36:15Z","count":15609,"tles":[{"name":"STARLINK-3585","line1":"1 51875U 22022Z   26087.86450222  .00000093  00000+0  23922-4 0  9999","line2":"2 51875  53.2177 282.9561 0001760 109.8376 250.2806 15.08839471226014","category":"Starlink"}]}